CYGNUS NG-23            
1 65616U 25208A   25343.50984768  .00014141  00000+0  26026-3 0  9994
2 65616  51.6310 158.4724 0003400 223.8185 136.2534 15.49447168   226
DRAGONFLY               
1 65729U 98067XH  25343.49474648  .00190953  00000+0  14915-2 0  9990
2 65729  51.6245 152.3636 0006537 255.9884 104.0387 15.70499103 12658
1998-067XK              
1 65731U 98067XK  25343.47826445  .00113689  00000+0  11288-2 0  9998
2 65731  51.6282 153.7695 0005245 225.0581 134.9989 15.64890010 12632
RSP-03                  
1 65732U 98067XL  25343.48887405  .00148707  00000+0  13210-2 0  9999
2 65732  51.6260 153.0820 0006011 229.3299 130.7176 15.67520874 12652
GHS-01                  
1 65733U 98067XM  25343.00731221  .00212660  00000+0  15001-2 0  9992
2 65733  51.6283 154.3653 0006877 253.5848 106.4394 15.72845555 12592
YOTSUBA-KULOVER         
1 65941U 98067XN  25343.50792527  .00080950  00000+0  10221-2 0  9998
2 65941  51.6274 156.2142 0001612 216.6617 143.4266 15.58849812  9356
BOTAN                   
1 65942U 98067XP  25343.52026374  .00124109  00000+0  13805-2 0  9997
2 65942  51.6280 155.5477 0003500 212.8190 147.2587 15.61959609  9368
E-KAGAKU-1              
1 65943U 98067XQ  25342.73860951  .00067115  00000+0  85625-3 0  9990
2 65943  51.6297 160.0822 0002977 178.8942 181.2057 15.58651727  9237
HRC MONOBLOCK CAMERA    
1 66052U 98067XR  25343.50002217  .00044690  00000+0  68667-3 0  9991
2 66052  51.6290 157.6571 0003811 171.0105 189.0954 15.53794743  8332
HTV-X1                  
1 66174U 25241A   25343.50984768  .00014141  00000+0  26026-3 0  9991
2 66174  51.6310 158.4724 0003400 223.8185 136.2534 15.49447168   518
SZ-21 MODULE            
1 66515U 25246C   25343.47095092  .00032351  00000+0  35876-3 0  9990
2 66515  41.4772  35.9831 0006286 242.4237 117.5964 15.62240002  3935
SHENZHOU-22             
1 66645U 25272A   25343.57586176  .00032682  00000+0  41053-3 0  9993
2 66645  41.4682  35.9133 0008959   5.1145 354.9784 15.58965688263007
